[{"OBJECT_NAME":"SCS-01 B","OBJECT_ID":"2025-100B","EPOCH":"2026-03-09T21:49:11.508672","MEAN_MOTION":15.3317485,"ECCENTRICITY":0.00088698,"INCLINATION":97.3706,"RA_OF_ASC_NODE":145.9041,"ARG_OF_PERICENTER":288.6157,"MEAN_ANOMALY":71.4122,"EPHEMERIS_TYPE":0,"CLASSIFICATION_TYPE":"U","NORAD_CAT_ID":63983,"ELEMENT_SET_NO":999,"REV_AT_EPOCH":4567,"BSTAR":0.00098809397,"MEAN_MOTION_DOT":0.00031724,"MEAN_MOTION_DDOT":0},{"OBJECT_NAME":"STARLINK-35983","OBJECT_ID":"2025-283AA","EPOCH":"2026-03-09T07:05:30.800832","MEAN_MOTION":15.30251187,"ECCENTRICITY":0.00014748,"INCLINATION":53.1604,"RA_OF_ASC_NODE":26.005,"ARG_OF_PERICENTER":56.685,"MEAN_ANOMALY":303.4292,"EPHEMERIS_TYPE":0,"CLASSIFICATION_TYPE":"U","NORAD_CAT_ID":66902,"ELEMENT_SET_NO":999,"REV_AT_EPOCH":1578,"BSTAR":0.0010750299,"MEAN_MOTION_DOT":0.00031666,"MEAN_MOTION_DDOT":0}]
